NORAD_CAT_ID,OBJECT_NAME,OBJECT_TYPE,EPOCH,MEAN_MOTION,ECCENTRICITY,INCLINATION,RA_OF_ASC_NODE,ARG_OF_PERICENTER,MEAN_ANOMALY,BSTAR,MEAN_MOTION_DOT,MEAN_MOTION_DDOT,TLE_LINE0,TLE_LINE1,TLE_LINE2,SEMIMAJOR_AXIS,PERIOD,APOGEE,PERIGEE,DECAYED
52102.0,STARLINK-3709,PAYLOAD,2022-08-24 14:00:01,15.08820987,0.0002081,53.2175,124.0873,61.7754,253.0719,0.0030112,0.00047937,0.0,0 STARLINK-3709,1 52102U 22029Q   22236.58334491  .00047937  00000-0  30112-2 0  9996,2 52102  53.2175 124.0873 0002081  61.7754 253.0719 15.08820987 25564,6917.939,95.439,541.243,538.364,0.0
52102.0,STARLINK-3709,PAYLOAD,2022-08-24 22:00:00,15.08858106,0.0002189999999999,53.2175,122.5926,59.0379,267.4037,-0.0012952999999999,-0.00020855,0.0,0 STARLINK-3709,1 52102U 22029Q   22236.91667824 -.00020855  00000-0 -12953-2 0  9997,2 52102  53.2175 122.5926 0002190  59.0379 267.4037 15.08858106  1302,6917.825,95.436,541.205,538.175,0.0
52102.0,STARLINK-3709,PAYLOAD,2022-08-25 06:00:02,15.08870241,0.0002154,53.217,121.0962,56.4237,281.6818,-0.0039024999999999,-0.00061916,0.0,0 STARLINK-3709,1 52102U 22029Q   22237.25002315 -.00061916  00000-0 -39025-2 0  9995,2 52102  53.2170 121.0962 0002154  56.4237 281.6818 15.08870241 25669,6917.788000000001,95.436,541.143,538.163,0.0
52102.0,STARLINK-3709,PAYLOAD,2022-08-25 14:00:01,15.08805186,0.0002013,53.217,119.5985,63.1696,286.4881,0.003014,0.00047961,0.0,0 STARLINK-3709,1 52102U 22029Q   22237.58334491  .00047961  00000-0  30140-2 0  9995,2 52102  53.2170 119.5985 0002013  63.1696 286.4881 15.08805186  1308,6917.986999999999,95.44,541.244,538.4590000000002,0.0
52102.0,STARLINK-3709,PAYLOAD,2022-08-25 22:00:00,15.08839228,0.0002154,53.2169,118.1038,59.7027,301.5287,-0.0012294,-0.00019801,0.0,0 STARLINK-3709,1 52102U 22029Q   22237.91667824 -.00019801  00000-0 -12294-2 0  9995,2 52102  53.2169 118.1038 0002154  59.7027 301.5287 15.08839228 25775,6917.8830000000025,95.438,541.238,538.258,0.0
52102.0,STARLINK-3709,PAYLOAD,2022-08-26 14:00:01,15.08815943,0.000208,53.2165,115.1095,64.9394,319.5333,0.0027943,0.00044435,0.0,0 STARLINK-3709,1 52102U 22029Q   22238.58335648  .00044435  00000-0  27943-2 0  9991,2 52102  53.2165 115.1095 0002080  64.9394 319.5333 15.08815943 25874,6917.954000000002,95.439,541.258,538.38,0.0
52102.0,STARLINK-3709,PAYLOAD,2022-08-26 22:00:00,15.08848671,0.0002223,53.2165,113.6149,61.0081,334.9906,-0.00107,-0.00017282,0.0,0 STARLINK-3709,1 52102U 22029Q   22238.91667824 -.00017282  00000-0 -10700-2 0  9997,2 52102  53.2165 113.6149 0002223  61.0081 334.9906 15.08848671  1300,6917.854,95.437,541.257,538.181,0.0
52102.0,STARLINK-3709,PAYLOAD,2022-08-27 14:00:01,15.08804456,0.0002048,53.2163,110.6203,64.5676,354.6342,0.0026352,0.0004186,0.0,0 STARLINK-3709,1 52102U 22029Q   22239.58334491  .00041860  00000-0  26352-2 0  9999,2 52102  53.2163 110.6203 0002048  64.5676 354.6342 15.08804456  1305,6917.989000000001,95.44,541.271,538.437,0.0
52102.0,STARLINK-3709,PAYLOAD,2022-08-27 22:00:00,15.08831812,0.0002209,53.2163,109.1256,60.4005,10.3727,-0.00090435,-0.00014649,0.0,0 STARLINK-3709,1 52102U 22029Q   22239.91667824 -.00014649  00000-0 -90435-3 0  9996,2 52102  53.2163 109.1256 0002209  60.4005  10.3727 15.08831812  1305,6917.905,95.438,541.299,538.242,0.0
52102.0,STARLINK-3709,PAYLOAD,2022-08-28 06:00:00,15.08847995,0.0002169,53.2163,107.6287,59.1309,23.2196,-0.0014543,-0.00023365,0.0,0 STARLINK-3709,1 52102U 22029Q   22240.25001157 -.00023365  00000-0 -14543-2 0  9996,2 52102  53.2163 107.6287 0002169  59.1309  23.2196 15.08847995 26128,6917.856,95.437,541.221,538.22,0.0
52102.0,STARLINK-3709,PAYLOAD,2022-08-28 14:00:01,15.08827097,0.000213,53.2165,106.1309,65.4893,28.4604,0.0023898,0.00037938,0.0,0 STARLINK-3709,1 52102U 22029Q   22240.58334491  .00037938  00000-0  23898-2 0  9994,2 52102  53.2165 106.1309 0002130  65.4893  28.4604 15.08827097  1300,6917.92,95.438,541.258,538.311,0.0
52102.0,STARLINK-3709,PAYLOAD,2022-08-28 22:00:00,15.08848116,0.0002266999999999,53.2165,104.6362,61.035,44.5101,-0.0005346,-8.789e-05,0.0,0 STARLINK-3709,1 52102U 22029Q   22240.91667824 -.00008789  00000-0 -53460-3 0  9993,2 52102  53.2165 104.6362 0002267  61.0350  44.5101 15.08848116  1309,6917.856,95.437,541.289,538.1519999999998,0.0
52102.0,STARLINK-3709,PAYLOAD,2022-08-29 14:00:01,15.0881733,0.0002083,53.2169,101.6414,65.70100000000001,63.0434,0.0019254,0.00030469,0.0,0 STARLINK-3709,1 52102U 22029Q   22241.58334491  .00030469  00000-0  19254-2 0  9998,2 52102  53.2169 101.6414 0002083  65.7010  63.0434 15.08817330  1307,6917.95,95.439,541.256,538.374,0.0
52102.0,STARLINK-3709,PAYLOAD,2022-08-29 22:00:00,15.08831355,0.0002209,53.2168,100.1468,60.7345,79.592,-0.00013261,-2.398e-05,0.0,0 STARLINK-3709,1 52102U 22029Q   22241.91667824 -.00002398  00000-0 -13261-3 0  9999,2 52102  53.2168 100.1468 0002209  60.7345  79.5920 15.08831355  1300,6917.906999999997,95.438,541.3,538.244,0.0
52102.0,STARLINK-3709,PAYLOAD,2022-08-30 06:00:00,15.08853024,0.0002143,53.2167,98.6496,61.50899999999999,90.3966,-0.0018105999999999,-0.00029,0.0,0 STARLINK-3709,1 52102U 22029Q   22242.25001157 -.00029000  00000-0 -18106-2 0  9999,2 52102  53.2167  98.6496 0002143  61.5090  90.3966 15.08853024 26422,6917.840999999999,95.437,541.188,538.2230000000002,0.0
52102.0,STARLINK-3709,PAYLOAD,2022-08-30 14:00:01,15.08834221,0.0002089999999999,53.2172,97.1522,67.5896,95.9102,0.0013987,0.00022039,0.0,0 STARLINK-3709,1 52102U 22029Q   22242.58334491  .00022039  00000-0  13987-2 0  9990,2 52102  53.2172  97.1522 0002090  67.5896  95.9102 15.08834221  1304,6917.898,95.438,541.2090000000002,538.317,0.0
52102.0,STARLINK-3709,PAYLOAD,2022-08-30 22:00:00,15.08848311,0.0002149,53.217,95.6575,61.3107,113.7938,-0.0025127,-0.00040066,0.0,0 STARLINK-3709,1 52102U 22029Q   22242.91667824 -.00040066  00000-0 -25127-2 0  9997,2 52102  53.2170  95.6575 0002149  61.3107 113.7938 15.08848311 26527,6917.855,95.437,541.207,538.2330000000002,0.0
52102.0,STARLINK-3709,PAYLOAD,2022-08-31 12:00:00,15.08808631,0.0001939,53.217,93.0368,67.2685,38.1162,0.0027997,0.00044513,0.0,0 STARLINK-3709,1 52102U 22029Q   22243.50001157  .00044513  00000-0  27997-2 0  9990,2 52102  53.2170  93.0368 0001939  67.2685  38.1162 15.08808631 26611,6917.976,95.44,541.183,538.5,0.0
52102.0,STARLINK-3709,PAYLOAD,2022-08-31 14:00:01,15.08827719,0.0001974,53.2172,92.663,68.5963,129.6751,0.0011999,0.00018854,0.0,0 STARLINK-3709,1 52102U 22029Q   22243.58334491  .00018854  00000-0  11999-2 0  9992,2 52102  53.2172  92.6630 0001974  68.5963 129.6751 15.08827719  1309,6917.918000000002,95.438,541.149,538.4169999999998,0.0
52102.0,STARLINK-3709,PAYLOAD,2022-08-31 22:00:00,15.08825798,0.0002089999999999,53.2171,91.1683,62.3313,147.5303,0.00064458,9.981e-05,0.0,0 STARLINK-3709,1 52102U 22029Q   22243.91667824  .00009981  00000-0  64458-3 0  9998,2 52102  53.2171  91.1683 0002090  62.3313 147.5303 15.08825798  1308,6917.924,95.438,541.235,538.3430000000002,0.0
52102.0,STARLINK-3709,PAYLOAD,2022-09-01 06:00:00,15.08852579,0.0001992,53.2169,89.6708,64.8216,156.6196,-0.0019495,-0.00031192,0.0,0 STARLINK-3709,1 52102U 22029Q   22244.25001157 -.00031192  00000-0 -19495-2 0  9998,2 52102  53.2169  89.6708 0001992  64.8216 156.6196 15.08852579 26725,6917.842,95.437,541.085,538.3290000000002,0.0
52102.0,STARLINK-3709,PAYLOAD,2022-09-01 14:00:01,15.08843289,0.0001973,53.2171,88.1739,70.8325,162.2651,0.00078546,0.00012236,0.0,0 STARLINK-3709,1 52102U 22029Q   22244.58335648  .00012236  00000-0  78546-3 0  9998,2 52102  53.2171  88.1739 0001973  70.8325 162.2651 15.08843289  1307,6917.87,95.437,541.1,538.37,0.0
52102.0,STARLINK-3709,PAYLOAD,2022-09-01 22:00:00,15.08834256,0.0002091,53.217,86.6793,64.2339,180.4072,0.0011499,0.00018057,0.0,0 STARLINK-3709,1 52102U 22029Q   22244.91667824  .00018057  00000-0  11499-2 0  9999,2 52102  53.2170  86.6793 0002091  64.2339 180.4072 15.08834256 26820,6917.898,95.438,541.2090000000002,538.316,0.0
52102.0,STARLINK-3709,PAYLOAD,2022-09-02 14:00:01,15.08860496,0.000193,53.2169,83.685,71.8913,195.9473,-0.0022219,-0.00035496,0.0,0 STARLINK-3709,1 52102U 22029Q   22245.58334491 -.00035496  00000-0 -22219-2 0  9994,2 52102  53.2169  83.6850 0001930  71.8913 195.9473 15.08860496  1309,6917.818,95.436,541.018,538.3480000000002,0.0
52102.0,STARLINK-3709,PAYLOAD,2022-09-02 22:00:01,15.08813336,0.0002009999999999,53.2169,82.1903,64.2288,215.2777,0.0015413,0.00024309,0.0,0 STARLINK-3709,1 52102U 22029Q   22245.91668981  .00024309  00000-0  15413-2 0  9992,2 52102  53.2169  82.1903 0002010  64.2288 215.2777 15.08813336 26977,6917.962,95.439,541.217,538.436,0.0
52102.0,STARLINK-3709,PAYLOAD,2022-09-03 14:00:01,15.08844649,0.000193,53.217,79.196,71.6368,230.9663,0.00018449,2.65e-05,0.0,0 STARLINK-3709,1 52102U 22029Q   22246.58334491  .00002650  00000-0  18449-3 0  9990,2 52102  53.2170  79.1960 0001930  71.6368 230.9663 15.08844649  1308,6917.866,95.437,541.066,538.396,0.0
52102.0,STARLINK-3709,PAYLOAD,2022-09-03 22:00:00,15.08826481,0.0002051,53.2171,77.7015,64.482,249.7267,0.0021195999999999,0.00033594,0.0,0 STARLINK-3709,1 52102U 22029Q   22246.91667824  .00033594  00000-0  21196-2 0  9999,2 52102  53.2171  77.7015 0002051  64.4820 249.7267 15.08826481 27122,6917.922,95.438,541.206,538.368,0.0
52102.0,STARLINK-3709,PAYLOAD,2022-09-04 14:00:01,15.08873993,0.0001899999999999,53.2174,74.707,70.0671,267.4111,-0.0026335,-0.00041996,0.0,0 STARLINK-3709,1 52102U 22029Q   22247.58335648 -.00041996  00000-0 -26335-2 0  9996,2 52102  53.2174  74.7070 0001900  70.0671 267.4111 15.08873993  1309,6917.776,95.435,540.956,538.327,0.0
52102.0,STARLINK-3709,PAYLOAD,2022-09-04 16:00:00,15.08867494,0.0001916,53.2173,74.3336,67.7897,2.5333,-0.0027441999999999,-0.00043731,0.0,0 STARLINK-3709,1 52102U 22029Q   22247.66667824 -.00043731  00000-0 -27442-2 0  9998,2 52102  53.2173  74.3336 0001916  67.7897   2.5333 15.08867494 27243,6917.795999999999,95.436,540.987,538.336,0.0
